NORAD_CAT_ID,OBJECT_NAME,OBJECT_TYPE,EPOCH,MEAN_MOTION,ECCENTRICITY,INCLINATION,RA_OF_ASC_NODE,ARG_OF_PERICENTER,MEAN_ANOMALY,BSTAR,MEAN_MOTION_DOT,MEAN_MOTION_DDOT,TLE_LINE0,TLE_LINE1,TLE_LINE2,SEMIMAJOR_AXIS,PERIOD,APOGEE,PERIGEE,DECAYED
55299.0,STARLINK-5270,PAYLOAD,2024-08-02 21:07:36,14.9832091,0.0002739,70.0008,56.3094,262.727,97.3578,-1.0858e-05,-2.22e-06,0.0,0 STARLINK-5270,1 55299U 23010AG  24215.88028424 -.00000222  00000-0 -10858-4 0  9990,2 55299  70.0008  56.3094 0002739 262.7270  97.3578 14.98320910 85516,6950.221,96.108,573.99,570.182,0.0
55299.0,STARLINK-5270,PAYLOAD,2024-08-02 22:43:44,14.98321098,0.000278,70.0007,56.1411,264.0066,96.0776,-8.1791e-06,-1.91e-06,0.0,0 STARLINK-5270,1 55299U 23010AG  24215.94704427 -.00000191  00000-0 -81791-5 0  9991,2 55299  70.0007  56.1411 0002780 264.0066  96.0776 14.98321098 86717,6950.22,96.108,574.018,570.153,0.0
55299.0,STARLINK-5270,PAYLOAD,2024-08-03 06:44:24,14.9832867,0.0002899,70.0004,55.2985,271.6617,88.421,2.8757e-06,-5.9e-07,0.0,0 STARLINK-5270,1 55299U 23010AG  24216.28084022 -.00000059  00000-0  28757-5 0  9996,2 55299  70.0004  55.2985 0002899 271.6617  88.4210 14.98328670 85571,6950.197,96.107,574.077,570.047,0.0
55299.0,STARLINK-5270,PAYLOAD,2024-08-03 14:45:04,14.98336762,0.0003125,69.9998,54.456,271.6082,88.4719,-4.4193e-05,-6.2e-06,0.0,0 STARLINK-5270,1 55299U 23010AG  24216.61463543 -.00000620  00000-0 -44193-4 0  9998,2 55299  69.9998  54.4560 0003125 271.6082  88.4719 14.98336762 86812,6950.172,96.107,574.209,569.865,0.0
55299.0,STARLINK-5270,PAYLOAD,2024-08-03 21:09:36,14.98335366,0.0002909,70.0002,53.7819,271.7225,88.3601,8.4089e-05,9.11e-06,0.0,0 STARLINK-5270,1 55299U 23010AG  24216.88167174  .00000911  00000-0  84089-4 0  9997,2 55299  70.0002  53.7819 0002909 271.7225  88.3601 14.98335366 85669,6950.176,96.107,574.063,570.019,0.0
55299.0,STARLINK-5270,PAYLOAD,2024-08-03 22:45:43,14.98348742,0.0002877,70.0006,53.6145,273.8981,86.1849,0.00013387,1.505e-05,0.0,0 STARLINK-5270,1 55299U 23010AG  24216.94842182  .00001505  00000-0  13387-3 0  9995,2 55299  70.0006  53.6145 0002877 273.8981  86.1849 14.98348742 86865,6950.135,96.106,573.999,570.0,0.0
55299.0,STARLINK-5270,PAYLOAD,2024-08-04 13:10:57,14.98327799,0.0002732,69.9999,52.099,271.7737,88.3109,7.9743e-05,8.59e-06,0.0,0 STARLINK-5270,1 55299U 23010AG  24217.54927444  .00000859  00000-0  79743-4 0  9997,2 55299  69.9999  52.0990 0002732 271.7737  88.3109 14.98327799 85760,6950.2,96.107,573.963,570.166,0.0
55299.0,STARLINK-5270,PAYLOAD,2024-08-04 14:47:05,14.98324928,0.0002934,69.9998,51.9306,270.1184,89.9638,5.9864e-05,6.21e-06,0.0,0 STARLINK-5270,1 55299U 23010AG  24217.61603633  .00000621  00000-0  59864-4 0  9995,2 55299  69.9998  51.9306 0002934 270.1184  89.9638 14.98324928 86969,6950.209,96.107,574.113,570.034,0.0
55299.0,STARLINK-5270,PAYLOAD,2024-08-04 22:47:45,14.98327892,0.000294,69.9999,51.0889,270.0134,90.0688,4.7966e-05,4.79e-06,0.0,0 STARLINK-5270,1 55299U 23010AG  24217.94983531  .00000479  00000-0  47966-4 0  9990,2 55299  69.9999  51.0889 0002940 270.0134  90.0688 14.98327892 87016,6950.199,96.107,574.108,570.021,0.0
55299.0,STARLINK-5270,PAYLOAD,2024-08-05 13:12:58,14.98330027,0.0002984,69.9998,49.5736,270.5188,89.5629,-4.1067e-05,-5.83e-06,0.0,0 STARLINK-5270,1 55299U 23010AG  24218.55067641 -.00000583  00000-0 -41067-4 0  9997,2 55299  69.9998  49.5736 0002984 270.5188  89.5629 14.98330027 85919,6950.193,96.107,574.132,569.984,0.0
55299.0,STARLINK-5270,PAYLOAD,2024-08-05 22:49:46,14.98330108,0.0003096,69.9998,48.5645,271.1668,88.9136,-2.8109e-05,-4.28e-06,0.0,0 STARLINK-5270,1 55299U 23010AG  24218.95123561 -.00000428  00000-0 -28109-4 0  9995,2 55299  69.9998  48.5645 0003096 271.1668  88.9136 14.98330108 87167,6950.193,96.107,574.209,569.906,0.0
55299.0,STARLINK-5270,PAYLOAD,2024-08-06 13:14:59,14.98326198,0.0002877,70.0001,47.0493,271.3973,88.6857,7.7924e-06,0.0,0.0,0 STARLINK-5270,1 55299U 23010AG  24219.55207715 -.00000000  00000-0  77924-5 0  9991,2 55299  70.0001  47.0493 0002877 271.3973  88.6857 14.98326198 86066,6950.205,96.107,574.069,570.07,0.0
55299.0,STARLINK-5270,PAYLOAD,2024-08-06 14:51:07,14.98326706,0.0002895,70.0003,46.8811,271.6066,88.4761,2.6856e-05,2.27e-06,0.0,0 STARLINK-5270,1 55299U 23010AG  24219.61883638  .00000227  00000-0  26856-4 0  9999,2 55299  70.0003  46.8811 0002895 271.6066  88.4761 14.98326706 87265,6950.203,96.107,574.08,570.056,0.0
55299.0,STARLINK-5270,PAYLOAD,2024-08-06 19:39:31,14.98335406,0.0002887,70.0002,46.3763,271.3532,88.7297,8.8676e-05,9.65e-06,0.0,0 STARLINK-5270,1 55299U 23010AG  24219.81910916  .00000965  00000-0  88676-4 0  9998,2 55299  70.0002  46.3763 0002887 271.3532  88.7297 14.98335406 86107,6950.176,96.107,574.048,570.035,0.0
55299.0,STARLINK-5270,PAYLOAD,2024-08-06 21:15:39,14.98335483,0.0002903,70.0002,46.208,271.3768,88.7059,8.661e-05,9.41e-06,0.0,0 STARLINK-5270,1 55299U 23010AG  24219.88586895  .00000941  00000-0  86610-4 0  9990,2 55299  70.0002  46.2080 0002903 271.3768  88.7059 14.98335483 87302,6950.176,96.107,574.059,570.023,0.0
55299.0,STARLINK-5270,PAYLOAD,2024-08-06 22:51:46,14.98337048,0.0002895,70.0003,46.0396,271.3294,88.7533,0.00010275,1.133e-05,0.0,0 STARLINK-5270,1 55299U 23010AG  24219.95262731  .00001133  00000-0  10275-3 0  9995,2 55299  70.0003  46.0396 0002895 271.3294  88.7533 14.98337048 87312,6950.171,96.107,574.048,570.024,0.0
55299.0,STARLINK-5270,PAYLOAD,2024-08-07 19:41:32,14.98326041,0.0002562,70.0016,43.8544,255.6513,104.4362,2.1033e-05,1.58e-06,0.0,0 STARLINK-5270,1 55299U 23010AG  24220.82051603  .00000158  00000-0  21033-4 0  9998,2 55299  70.0016  43.8544 0002562 255.6513 104.4362 14.98326041 86255,6950.205,96.107,573.851,570.289,0.0
55299.0,STARLINK-5270,PAYLOAD,2024-08-08 13:19:01,14.98327186,0.0002635,70.0018,42.0013,263.6633,96.4226,-2.73e-05,-4.19e-06,0.0,0 STARLINK-5270,1 55299U 23010AG  24221.55487789 -.00000419  00000-0 -27300-4 0  9992,2 55299  70.0018  42.0013 0002635 263.6633  96.4226 14.98327186 87556,6950.202,96.107,573.898,570.235,0.0
55299.0,STARLINK-5270,PAYLOAD,2024-08-08 21:19:41,14.9833013,0.0002729,70.0014,41.16,264.2051,95.8797,-6.2662e-05,-8.41e-06,0.0,0 STARLINK-5270,1 55299U 23010AG  24221.88867729 -.00000841  00000-0 -62662-4 0  9993,2 55299  70.0014  41.1600 0002729 264.2051  95.8797 14.98330130 86412,6950.192,96.107,573.954,570.161,0.0
55299.0,STARLINK-5270,PAYLOAD,2024-08-09 05:20:20,14.98369802,0.0003133,70.001,40.3165,269.4868,90.5932,-0.00065756,-7.938e-05,0.0,0 STARLINK-5270,1 55299U 23010AG  24222.22246509 -.00007938  00000-0 -65756-3 0  9999,2 55299  70.0010  40.3165 0003133 269.4868  90.5932 14.98369802 86464,6950.07,96.104,574.112,569.757,0.0
55299.0,STARLINK-5270,PAYLOAD,2024-08-09 13:21:02,14.98330376,0.0002966,70.0005,39.4746,271.3376,88.7443,3.0647e-05,2.73e-06,0.0,0 STARLINK-5270,1 55299U 23010AG  24222.55627389  .00000273  00000-0  30647-4 0  9999,2 55299  70.0005  39.4746 0002966 271.3376  88.7443 14.98330376 86517,6950.192,96.107,574.118,569.995,0.0
55299.0,STARLINK-5270,PAYLOAD,2024-08-09 21:21:42,14.98333817,0.0002883,70.001,38.6341,268.575,91.5079,8.9125e-05,9.71e-06,0.0,0 STARLINK-5270,1 55299U 23010AG  24222.89006961  .00000971  00000-0  89125-4 0  9993,2 55299  70.0010  38.6341 0002883 268.5750  91.5079 14.98333817 87754,6950.181,96.107,574.05,570.042,0.0
55299.0,STARLINK-5270,PAYLOAD,2024-08-10 13:23:03,14.9832938,0.0002851,70.0017,36.9496,270.6193,89.464,-7.4159e-06,-1.81e-06,0.0,0 STARLINK-5270,1 55299U 23010AG  24223.55767527 -.00000181  00000-0 -74159-5 0  9996,2 55299  70.0017  36.9496 0002851 270.6193  89.4640 14.98329380 86662,6950.195,96.107,574.041,570.078,0.0
55299.0,STARLINK-5270,PAYLOAD,2024-08-10 14:59:11,14.98327839,0.0002865,70.0013,36.7818,271.0304,89.0526,-1.7943e-06,-1.14e-06,0.0,0 STARLINK-5270,1 55299U 23010AG  24223.62443606 -.00000114  00000-0 -17943-5 0  9997,2 55299  70.0013  36.7818 0002865 271.0304  89.0526 14.98327839 87867,6950.2,96.107,574.056,570.073,0.0
55299.0,STARLINK-5270,PAYLOAD,2024-08-10 21:23:43,14.98330056,0.000278,70.0012,36.1085,269.8686,90.2154,2.5586e-05,2.12e-06,0.0,0 STARLINK-5270,1 55299U 23010AG  24223.89147393  .00000212  00000-0  25586-4 0  9998,2 55299  70.0012  36.1085 0002780 269.8686  90.2154 14.98330056 87901,6950.193,96.107,573.99,570.126,0.0
55299.0,STARLINK-5270,PAYLOAD,2024-08-11 21:25:44,14.98334194,0.0002533,70.0013,33.5826,261.5845,98.5026,1.0035e-05,2.7e-07,0.0,0 STARLINK-5270,1 55299U 23010AG  24224.89287104  .00000027  00000-0  10035-4 0  9991,2 55299  70.0013  33.5826 0002533 261.5845  98.5026 14.98334194 86868,6950.18,96.107,573.805,570.284,0.0
55299.0,STARLINK-5270,PAYLOAD,2024-08-12 10:14:48,14.98312254,0.000234,70.0017,32.2355,270.7247,89.3644,0.00034702,4.048e-05,0.0,0 STARLINK-5270,1 55299U 23010AG  24225.42695202  .00004048  00000-0  34702-3 0  9996,2 55299  70.0017  32.2355 0002340 270.7247  89.3644 14.98312254 86945,6950.248,96.108,573.739,570.486,0.0
55299.0,STARLINK-5270,PAYLOAD,2024-08-12 21:27:44,14.98329155,0.0002292,70.0013,31.0589,270.1732,89.9165,0.00026649,3.088e-05,0.0,0 STARLINK-5270,1 55299U 23010AG  24225.89426586  .00003088  00000-0  26649-3 0  9998,2 55299  70.0013  31.0589 0002292 270.1732  89.9165 14.98329155 87017,6950.196,96.107,573.653,570.468,0.0
55299.0,STARLINK-5270,PAYLOAD,2024-08-13 03:52:18,14.98316536,0.0001804,70.0034,30.3847,277.4453,82.6501,-0.00010066,-1.293e-05,0.0,0 STARLINK-5270,1 55299U 23010AG  24226.16132546 -.00001293  00000-0 -10066-3 0  9993,2 55299  70.0034  30.3847 0001804 277.4453  82.6501 14.98316536 87054,6950.235,96.108,573.353,570.846,0.0
55299.0,STARLINK-5270,PAYLOAD,2024-08-13 10:16:51,14.98309711,0.00025,70.0037,29.7141,268.3619,91.7254,-8.4796e-05,-1.104e-05,0.0,0 STARLINK-5270,1 55299U 23010AG  24226.42836868 -.00001104  00000-0 -84796-4 0  9993,2 55299  70.0037  29.7141 0002500 268.3619  91.7254 14.98309711 88282,6950.256,96.108,573.858,570.383,0.0
